start=new Date('2022-03-16T00:00:00.000Z').valueOf();
sats=[{"TLE_LINE1":"1 51463U 22010H   22074.91667824 -.00712173  00000-0 -11673-1 0  9994","TLE_LINE2":"2 51463  53.2176 334.3637 0001694  37.4590  80.1966 15.54353427  7570","PERIOD":"92.643","SITE":"AFETR","FILE":"3360863","OBJECT_NAME":"STARLINK-3419","EPHEMERIS_TYPE":"0","ELEMENT_SET_NO":"999","APOAPSIS":"405.184","MEAN_MOTION_DOT":"-0.00712173","OBJECT_ID":"2022-010H","CENTER_NAME":"EARTH","SEMIMAJOR_AXIS":"6782.170","DECAY_DATE":null,"ARG_OF_PERICENTER":"37.4590","MEAN_ANOMALY":"80.1966","RA_OF_ASC_NODE":"334.3637","NORAD_CAT_ID":"51463","REV_AT_EPOCH":"757","BSTAR":"-0.01167300000000","LAUNCH_DATE":"2022-02-03","ECCENTRICITY":"0.00016940","RCS_SIZE":"LARGE","GP_ID":"198823829","MEAN_MOTION":"15.54353427","REF_FRAME":"TEME","EPOCH":"2022-03-15T22:00:00.999936","MEAN_ELEMENT_THEORY":"SGP4","PERIAPSIS":"402.886","MEAN_MOTION_DDOT":"0.0000000000000","COUNTRY_CODE":"US","OBJECT_TYPE":"PAYLOAD","TIME_SYSTEM":"UTC","INCLINATION":"53.2176","CLASSIFICATION_TYPE":"U"},{"NORAD_CAT_ID":"51464","REV_AT_EPOCH":"758","BSTAR":"-0.01176600000000","LAUNCH_DATE":"2022-02-03","RCS_SIZE":"LARGE","ECCENTRICITY":"0.00012670","REF_FRAME":"TEME","GP_ID":"198823836","MEAN_MOTION":"15.54261965","EPOCH":"2022-03-15T22:00:00.999936","PERIAPSIS":"403.442","MEAN_ELEMENT_THEORY":"SGP4","MEAN_MOTION_DDOT":"0.0000000000000","COUNTRY_CODE":"US","OBJECT_TYPE":"PAYLOAD","TIME_SYSTEM":"UTC","INCLINATION":"53.2176","CLASSIFICATION_TYPE":"U","TLE_LINE1":"1 51464U 22010J   22074.91667824 -.00715084  00000-0 -11766-1 0  9992","TLE_LINE2":"2 51464  53.2176 334.4803 0001267  52.7170 334.8672 15.54261965  7586","PERIOD":"92.648","SITE":"AFETR","OBJECT_NAME":"STARLINK-3189","FILE":"3360864","EPHEMERIS_TYPE":"0","ELEMENT_SET_NO":"999","APOAPSIS":"405.160","MEAN_MOTION_DOT":"-0.00715084","OBJECT_ID":"2022-010J","CENTER_NAME":"EARTH","SEMIMAJOR_AXIS":"6782.436","DECAY_DATE":null,"ARG_OF_PERICENTER":"52.7170","MEAN_ANOMALY":"334.8672","RA_OF_ASC_NODE":"334.4803"},{"MEAN_MOTION_DDOT":"0.0000000000000","COUNTRY_CODE":"US","EPOCH":"2022-03-15T22:00:00.999936","MEAN_ELEMENT_THEORY":"SGP4","PERIAPSIS":"402.883","BSTAR":"-0.01171200000000","LAUNCH_DATE":"2022-02-03","ECCENTRICITY":"0.00015420","RCS_SIZE":"LARGE","MEAN_MOTION":"15.54389791","GP_ID":"198823859","REF_FRAME":"TEME","NORAD_CAT_ID":"51465","REV_AT_EPOCH":"763","CLASSIFICATION_TYPE":"U","OBJECT_TYPE":"PAYLOAD","TIME_SYSTEM":"UTC","INCLINATION":"53.2176","OBJECT_ID":"2022-010K","CENTER_NAME":"EARTH","APOAPSIS":"404.975","MEAN_MOTION_DOT":"-0.00715203","TLE_LINE2":"2 51465  53.2176 334.4792 0001542  38.4380 355.4593 15.54389791  7639","PERIOD":"92.641","SITE":"AFETR","EPHEMERIS_TYPE":"0","FILE":"3360880","OBJECT_NAME":"STARLINK-3401","ELEMENT_SET_NO":"999","TLE_LINE1":"1 51465U 22010K   22074.91667824 -.00715203  00000-0 -11712-1 0  9997","MEAN_ANOMALY":"355.4593","RA_OF_ASC_NODE":"334.4792","ARG_OF_PERICENTER":"38.4380","DECAY_DATE":null,"SEMIMAJOR_AXIS":"6782.064"},{"EPOCH":"2022-03-15T22:00:00.999936","MEAN_ELEMENT_THEORY":"SGP4","PERIAPSIS":"409.406","MEAN_MOTION_DDOT":"0.0000000000000","COUNTRY_CODE":"US","NORAD_CAT_ID":"51467","REV_AT_EPOCH":"762","BSTAR":"-0.01271300000000","LAUNCH_DATE":"2022-02-03","ECCENTRICITY":"0.00017280","RCS_SIZE":"LARGE","GP_ID":"198823933","MEAN_MOTION":"15.52106482","REF_FRAME":"TEME","CLASSIFICATION_TYPE":"U","OBJECT_TYPE":"PAYLOAD","TIME_SYSTEM":"UTC","INCLINATION":"53.2175","APOAPSIS":"411.752","MEAN_MOTION_DOT":"-0.00714342","OBJECT_ID":"2022-010M","CENTER_NAME":"EARTH","TLE_LINE1":"1 51467U 22010M   22074.91667824 -.00714342  00000-0 -12713-1 0  9994","PERIOD":"92.777","TLE_LINE2":"2 51467  53.2175 334.3611 0001728  31.4331 341.1251 15.52106482  7628","SITE":"AFETR","FILE":"3360869","EPHEMERIS_TYPE":"0","OBJECT_NAME":"STARLINK-3178","ELEMENT_SET_NO":"999","ARG_OF_PERICENTER":"31.4331","MEAN_ANOMALY":"341.1251","RA_OF_ASC_NODE":"334.3611","SEMIMAJOR_AXIS":"6788.714","DECAY_DATE":null},{"MEAN_MOTION_DOT":"-0.00712792","APOAPSIS":"405.788","CENTER_NAME":"EARTH","OBJECT_ID":"2022-010N","TLE_LINE1":"1 51468U 22010N   22074.91667824 -.00712792  00000-0 -11795-1 0  9991","FILE":"3360870","EPHEMERIS_TYPE":"0","OBJECT_NAME":"STARLINK-3174","ELEMENT_SET_NO":"999","PERIOD":"92.658","TLE_LINE2":"2 51468  53.2176 334.3665 0001489  44.8412  60.1285 15.54098111  7638","SITE":"AFETR","ARG_OF_PERICENTER":"44.8412","RA_OF_ASC_NODE":"334.3665","MEAN_ANOMALY":"60.1285","SEMIMAJOR_AXIS":"6782.913","DECAY_DATE":null,"EPOCH":"2022-03-15T22:00:00.999936","PERIAPSIS":"403.768","MEAN_ELEMENT_THEORY":"SGP4","COUNTRY_CODE":"US","MEAN_MOTION_DDOT":"0.0000000000000","REV_AT_EPOCH":"763","NORAD_CAT_ID":"51468","ECCENTRICITY":"0.00014890","RCS_SIZE":"LARGE","REF_FRAME":"TEME","GP_ID":"198824441","MEAN_MOTION":"15.54098111","BSTAR":"-0.01179500000000","LAUNCH_DATE":"2022-02-03","CLASSIFICATION_TYPE":"U","INCLINATION":"53.2176","OBJECT_TYPE":"PAYLOAD","TIME_SYSTEM":"UTC"},{"SEMIMAJOR_AXIS":"6782.808","DECAY_DATE":null,"ARG_OF_PERICENTER":"53.6163","RA_OF_ASC_NODE":"334.4815","MEAN_ANOMALY":"327.6163","TLE_LINE1":"1 51469U 22010P   22074.91667824 -.00714999  00000-0 -11820-1 0  9992","ELEMENT_SET_NO":"999","EPHEMERIS_TYPE":"0","FILE":"3360870","OBJECT_NAME":"STARLINK-3182","SITE":"AFETR","PERIOD":"92.656","TLE_LINE2":"2 51469  53.2176 334.4815 0001257  53.6163 327.6163 15.54134029  7636","MEAN_MOTION_DOT":"-0.00714999","APOAPSIS":"405.526","CENTER_NAME":"EARTH","OBJECT_ID":"2022-010P","INCLINATION":"53.2176","TIME_SYSTEM":"UTC","OBJECT_TYPE":"PAYLOAD","CLASSIFICATION_TYPE":"U","REV_AT_EPOCH":"763","NORAD_CAT_ID":"51469","GP_ID":"198823937","MEAN_MOTION":"15.54134029","REF_FRAME":"TEME","ECCENTRICITY":"0.00012570","RCS_SIZE":"LARGE","LAUNCH_DATE":"2022-02-03","BSTAR":"-0.01182000000000","MEAN_ELEMENT_THEORY":"SGP4","PERIAPSIS":"403.820","EPOCH":"2022-03-15T22:00:00.999936","COUNTRY_CODE":"US","MEAN_MOTION_DDOT":"0.0000000000000"},{"MEAN_MOTION_DOT":"-0.00353098","APOAPSIS":"371.069","CENTER_NAME":"EARTH","OBJECT_ID":"2022-010R","TLE_LINE1":"1 51471U 22010R   22074.84782202 -.00353098  00000-0 -35124-2 0  9998","FILE":"3360870","OBJECT_NAME":"STARLINK-3165","EPHEMERIS_TYPE":"0","ELEMENT_SET_NO":"999","TLE_LINE2":"2 51471  53.2155 332.5505 0001673  73.1810 286.9391 15.66148396  7645","PERIOD":"91.945","SITE":"AFETR","ARG_OF_PERICENTER":"73.1810","RA_OF_ASC_NODE":"332.5505","MEAN_ANOMALY":"286.9391","SEMIMAJOR_AXIS":"6748.075","DECAY_DATE":null,"EPOCH":"2022-03-15T20:20:51.822528","PERIAPSIS":"368.811","MEAN_ELEMENT_THEORY":"SGP4","COUNTRY_CODE":"US","MEAN_MOTION_DDOT":"0.0000000000000","REV_AT_EPOCH":"764","NORAD_CAT_ID":"51471","ECCENTRICITY":"0.00016730","RCS_SIZE":"MEDIUM","GP_ID":"198823939","MEAN_MOTION":"15.66148396","REF_FRAME":"TEME","BSTAR":"-0.00351240000000","LAUNCH_DATE":"2022-02-03","CLASSIFICATION_TYPE":"U","INCLINATION":"53.2155","OBJECT_TYPE":"PAYLOAD","TIME_SYSTEM":"UTC"},{"INCLINATION":"53.2176","OBJECT_TYPE":"PAYLOAD","TIME_SYSTEM":"UTC","CLASSIFICATION_TYPE":"U","REV_AT_EPOCH":"368","NORAD_CAT_ID":"51472","RCS_SIZE":"LARGE","ECCENTRICITY":"0.00016120","GP_ID":"198850840","MEAN_MOTION":"15.54225820","REF_FRAME":"TEME","BSTAR":"-0.01173500000000","LAUNCH_DATE":"2022-02-03","EPOCH":"2022-03-15T22:00:00.999936","MEAN_ELEMENT_THEORY":"SGP4","PERIAPSIS":"403.313","COUNTRY_CODE":"US","MEAN_MOTION_DDOT":"0.0000000000000","SEMIMAJOR_AXIS":"6782.541","DECAY_DATE":null,"ARG_OF_PERICENTER":"40.3398","RA_OF_ASC_NODE":"334.3651","MEAN_ANOMALY":"70.9920","TLE_LINE1":"1 51472U 22010S   22074.91667824 -.00712550  00000-0 -11735-1 0  9992","OBJECT_NAME":"STARLINK-3415","FILE":"3360930","EPHEMERIS_TYPE":"0","ELEMENT_SET_NO":"999","PERIOD":"92.651","TLE_LINE2":"2 51472  53.2176 334.3651 0001612  40.3398  70.9920 15.54225820  3685","SITE":"AFETR","MEAN_MOTION_DOT":"-0.00712550","APOAPSIS":"405.499","CENTER_NAME":"EARTH","OBJECT_ID":"2022-010S"},{"COUNTRY_CODE":"US","MEAN_MOTION_DDOT":"0.0000000000000","EPOCH":"2022-03-15T22:00:00.999936","MEAN_ELEMENT_THEORY":"SGP4","PERIAPSIS":"350.596","ECCENTRICITY":"0.00012320","RCS_SIZE":"LARGE","MEAN_MOTION":"15.72616383","GP_ID":"198823884","REF_FRAME":"TEME","BSTAR":"-0.00571010000000","LAUNCH_DATE":"2022-02-21","REV_AT_EPOCH":"473","NORAD_CAT_ID":"51714","CLASSIFICATION_TYPE":"U","INCLINATION":"53.2177","OBJECT_TYPE":"PAYLOAD","TIME_SYSTEM":"UTC","CENTER_NAME":"EARTH","OBJECT_ID":"2022-016A","MEAN_MOTION_DOT":"-0.00718615","APOAPSIS":"352.254","FILE":"3360866","OBJECT_NAME":"STARLINK-3528","EPHEMERIS_TYPE":"0","ELEMENT_SET_NO":"999","TLE_LINE2":"2 51714  53.2177  29.1251 0001232  69.1158 182.4488 15.72616383  4734","PERIOD":"91.567","SITE":"AFETR","TLE_LINE1":"1 51714U 22016A   22074.91667824 -.00718615  00000-0 -57101-2 0  9993","RA_OF_ASC_NODE":"29.1251","MEAN_ANOMALY":"182.4488","ARG_OF_PERICENTER":"69.1158","DECAY_DATE":null,"SEMIMAJOR_AXIS":"6729.560"},{"OBJECT_TYPE":"PAYLOAD","TIME_SYSTEM":"UTC","INCLINATION":"53.2177","CLASSIFICATION_TYPE":"U","NORAD_CAT_ID":"51715","REV_AT_EPOCH":"479","BSTAR":"-0.00563440000000","LAUNCH_DATE":"2022-02-21","ECCENTRICITY":"0.00012160","RCS_SIZE":"LARGE","GP_ID":"198823924","MEAN_MOTION":"15.73001415","REF_FRAME":"TEME","EPOCH":"2022-03-15T22:00:00.999936","PERIAPSIS":"349.508","MEAN_ELEMENT_THEORY":"SGP4","MEAN_MOTION_DDOT":"0.0000000000000","COUNTRY_CODE":"US","SEMIMAJOR_AXIS":"6728.461","DECAY_DATE":null,"ARG_OF_PERICENTER":"67.9236","MEAN_ANOMALY":"185.9177","RA_OF_ASC_NODE":"29.1208","TLE_LINE1":"1 51715U 22016B   22074.91667824 -.00720735  00000-0 -56344-2 0  9998","TLE_LINE2":"2 51715  53.2177  29.1208 0001216  67.9236 185.9177 15.73001415  4796","PERIOD":"91.545","SITE":"AFETR","OBJECT_NAME":"STARLINK-3533","FILE":"3360868","EPHEMERIS_TYPE":"0","ELEMENT_SET_NO":"999","APOAPSIS":"351.145","MEAN_MOTION_DOT":"-0.00720735","OBJECT_ID":"2022-016B","CENTER_NAME":"EARTH"}];
